QIANFAN-17              
1 60395U 24140S   26022.98771256  .00000220  00000+0  32181-3 0  9992
2 60395  88.9788 295.1773 0016746  85.3759 274.9305 13.50988275 73703
QIANFAN-18              
1 60396U 24140T   26022.89305356  .00000225  00000+0  32925-3 0  9998
2 60396  88.9780 294.7177 0016118  70.1619 290.1268 13.50988218 73085
QIANFAN-19              
1 61552U 24185A   26022.90288916  .00000820  00000+0  42185-3 0  9996
2 61552  88.9781  73.2256 0007837 156.1592 203.9960 14.14344014 75480
QIANFAN-20              
1 61553U 24185B   26022.95254916  .00000705  00000+0  40000-3 0  9991
2 61553  88.9779  73.5855 0005313 188.8428 171.2663 14.08889800 75299
QIANFAN-21              
1 61554U 24185C   26022.96787931  .00001016  00000+0  44763-3 0  9997
2 61554  88.9696  72.1512 0009218 218.5315 141.5219 14.22671138 75833
QIANFAN-22              
1 61555U 24185D   26022.93136697  .00000304  00000+0  25170-3 0  9992
2 61555  88.9765  74.7348 0005258 213.1111 146.9732 13.86320550 74646
QIANFAN-23              
1 61556U 24185E   26022.96162796  .00000914  00000+0  45368-3 0  9993
2 61556  88.9772  73.0091 0008100 167.5677 192.5713 14.16340830 75587
QIANFAN-24              
1 61557U 24185F   26022.93582927  .00000944  00000+0  40602-3 0  9992
2 61557  88.9755  72.3495 0010538 152.4314 207.7440 14.23870557 75889
